{"type": "FeatureCollection", "features": [ {"type": "Feature", "properties": {"norad_id": 66436, "name": "STARLINK-35501", "group": "last-30-days", "lat": -30.04976887361653, "lon": -70.9097904930657, "alt_km": 430.57059420581027, "timestamp": "2025-12-08T17:43:03.631166+00:00", "meta": {"OBJECT_NAME": "STARLINK-35501", "OBJECT_ID": "2025-259Q", "EPOCH": "2025-12-08T07:26:14.662752", "MEAN_MOTION": 15.46402329, "ECCENTRICITY": 0.00018785, "INCLINATION": 43.0015, "RA_OF_ASC_NODE": 73.2063, "ARG_OF_PERICENTER": 288.1493, "MEAN_ANOMALY": 71.9161, "EPHEMERIS_TYPE": 0, "CLASSIFICATION_TYPE": "U", "NORAD_CAT_ID": 66436, "ELEMENT_SET_NO": 999, "REV_AT_EPOCH": 548, "BSTAR": -0.0091245188, "MEAN_MOTION_DOT": -0.00437518, "MEAN_MOTION_DDOT": 0}, "tle": {"line1": "1 66436U 25259Q   25342.30989193 -.00437518  00000+0 -91245-2 0  9998", "line2": "2 66436  43.0015  73.2063 0001878 288.1493  71.9161 15.46402329  5488"}}, "geometry": {"type": "Point", "coordinates": [-70.9097904930657, -30.04976887361653]}}, {"type": "Feature", "properties": {"norad_id": 66437, "name": "STARLINK-35474", "group": "last-30-days", "lat": -37.321232239141985, "lon": -54.433391054381225, "alt_km": 419.67903702412787, "timestamp": "2025-12-08T17:43:03.631179+00:00", "meta": {"OBJECT_NAME": "STARLINK-35474", "OBJECT_ID": "2025-259R", "EPOCH": "2025-12-07T23:40:04.903104", "MEAN_MOTION": 15.50351883, "ECCENTRICITY": 0.00084662, "INCLINATION": 43.0038, "RA_OF_ASC_NODE": 75.0774, "ARG_OF_PERICENTER": 342.1937, "MEAN_ANOMALY": 17.8626, "EPHEMERIS_TYPE": 0, "CLASSIFICATION_TYPE": "U", "NORAD_CAT_ID": 66437, "ELEMENT_SET_NO": 999, "REV_AT_EPOCH": 543, "BSTAR": 0.0021057773, "MEAN_MOTION_DOT": 0.00124312, "MEAN_MOTION_DDOT": 0}, "tle": {"line1": "1 66437U 25259R   25341.98616786  .00124312  00000+0  21058-2 0  9995", "line2": "2 66437  43.0038  75.0774 0008466 342.1937  17.8626 15.50351883  5430"}}, "geometry": {"type": "Point", "coordinates": [-54.433391054381225, -37.321232239141985]}}, {"type": "Feature", "properties": {"norad_id": 66438, "name": "STARLINK-34681", "group": "last-30-days", "lat": -38.70869304676242, "lon": -50.00804757739174, "alt_km": 417.4035392711339, "timestamp": "2025-12-08T17:43:03.631190+00:00", "meta": {"OBJECT_NAME": "STARLINK-34681", "OBJECT_ID": "2025-259S", "EPOCH": "2025-12-07T23:39:13.067424", "MEAN_MOTION": 15.5049474, "ECCENTRICITY": 0.00027185, "INCLINATION": 42.9984, "RA_OF_ASC_NODE": 75.0723, "ARG_OF_PERICENTER": 311.9192, "MEAN_ANOMALY": 48.1436, "EPHEMERIS_TYPE": 0, "CLASSIFICATION_TYPE": "U", "NORAD_CAT_ID": 66438, "ELEMENT_SET_NO": 999, "REV_AT_EPOCH": 532, "BSTAR": 0.0016901486, "MEAN_MOTION_DOT": 0.00099791, "MEAN_MOTION_DDOT": 0}, "tle": {"line1": "1 66438U 25259S   25341.98556791  .00099791  00000+0  16901-2 0  9998", "line2": "2 66438  42.9984  75.0723 0002718 311.9192  48.1436 15.50494740  5328"}}, "geometry": {"type": "Point", "coordinates": [-50.00804757739174, -38.70869304676242]}}, {"type": "Feature", "properties": {"norad_id": 66439, "name": "STARLINK-35327", "group": "last-30-days", "lat": -23.4769023019107, "lon": -81.47249550710308, "alt_km": 439.94090934384985, "timestamp": "2025-12-08T17:43:03.631203+00:00", "meta": {"OBJECT_NAME": "STARLINK-35327", "OBJECT_ID": "2025-259T", "EPOCH": "2025-12-08T06:00:02.999808", "MEAN_MOTION": 15.44819251, "ECCENTRICITY": 0.00012849, "INCLINATION": 43.0004, "RA_OF_ASC_NODE": 73.5735, "ARG_OF_PERICENTER": 269.8034, "MEAN_ANOMALY": 109.5163, "EPHEMERIS_TYPE": 0, "CLASSIFICATION_TYPE": "U", "NORAD_CAT_ID": 66439, "ELEMENT_SET_NO": 999, "REV_AT_EPOCH": 555, "BSTAR": -0.047727363, "MEAN_MOTION_DOT": -0.02037562, "MEAN_MOTION_DDOT": 0}, "tle": {"line1": "1 66439U 25259T   25342.25003472 -.02037562  00000+0 -47727-1 0  9994", "line2": "2 66439  43.0004  73.5735 0001284 269.8034 109.5163 15.44819251  5558"}}, "geometry": {"type": "Point", "coordinates": [-81.47249550710308, -23.4769023019107]}}, {"type": "Feature", "properties": {"norad_id": 66440, "name": "STARLINK-35405", "group": "last-30-days", "lat": -39.11723833059365, "lon": -48.57266862651551, "alt_km": 415.38347815638554, "timestamp": "2025-12-08T17:43:03.631214+00:00", "meta": {"OBJECT_NAME": "STARLINK-35405", "OBJECT_ID": "2025-259U", "EPOCH": "2025-12-08T07:22:31.709280", "MEAN_MOTION": 15.5025432, "ECCENTRICITY": 0.00089559, "INCLINATION": 43.0019, "RA_OF_ASC_NODE": 73.1858, "ARG_OF_PERICENTER": 293.5691, "MEAN_ANOMALY": 66.4228, "EPHEMERIS_TYPE": 0, "CLASSIFICATION_TYPE": "U", "NORAD_CAT_ID": 66440, "ELEMENT_SET_NO": 999, "REV_AT_EPOCH": 548, "BSTAR": -0.0014583339, "MEAN_MOTION_DOT": -0.00084166, "MEAN_MOTION_DDOT": 0}, "tle": {"line1": "1 66440U 25259U   25342.30731145 -.00084166  00000+0 -14583-2 0  9992", "line2": "2 66440  43.0019  73.1858 0008955 293.5691  66.4228 15.50254320  5485"}}, "geometry": {"type": "Point", "coordinates": [-48.57266862651551, -39.11723833059365]}}, {"type": "Feature", "properties": {"norad_id": 66441, "name": "STARLINK-35426", "group": "last-30-days", "lat": -40.04991360954635, "lon": -44.91125579024226, "alt_km": 417.0791200132544, "timestamp": "2025-12-08T17:43:03.631224+00:00", "meta": {"OBJECT_NAME": "STARLINK-35426", "OBJECT_ID": "2025-259V", "EPOCH": "2025-12-08T07:21:58.514400", "MEAN_MOTION": 15.50605801, "ECCENTRICITY": 0.00012739, "INCLINATION": 43.0003, "RA_OF_ASC_NODE": 73.1832, "ARG_OF_PERICENTER": 261.9613, "MEAN_ANOMALY": 98.1103, "EPHEMERIS_TYPE": 0, "CLASSIFICATION_TYPE": "U", "NORAD_CAT_ID": 66441, "ELEMENT_SET_NO": 999, "REV_AT_EPOCH": 548, "BSTAR": 0.0019443289, "MEAN_MOTION_DOT": 0.00115531, "MEAN_MOTION_DDOT": 0}, "tle": {"line1": "1 66441U 25259V   25342.30692725  .00115531  00000+0  19443-2 0  9992", "line2": "2 66441  43.0003  73.1832 0001273 261.9613  98.1103 15.50605801  5488"}}, "geometry": {"type": "Point", "coordinates": [-44.91125579024226, -40.04991360954635]}}, {"type": "Feature", "properties": {"norad_id": 66442, "name": "STARLINK-34724", "group": "last-30-days", "lat": -40.57873046323563, "lon": -42.55295206952152, "alt_km": 417.7183409118152, "timestamp": "2025-12-08T17:43:03.631235+00:00", "meta": {"OBJECT_NAME": "STARLINK-34724", "OBJECT_ID": "2025-259W", "EPOCH": "2025-12-08T07:21:27.692928", "MEAN_MOTION": 15.50605279, "ECCENTRICITY": 0.00015165, "INCLINATION": 43.0006, "RA_OF_ASC_NODE": 73.1808, "ARG_OF_PERICENTER": 303.6738, "MEAN_ANOMALY": 56.3978, "EPHEMERIS_TYPE": 0, "CLASSIFICATION_TYPE": "U", "NORAD_CAT_ID": 66442, "ELEMENT_SET_NO": 999, "REV_AT_EPOCH": 548, "BSTAR": -0.00064654219, "MEAN_MOTION_DOT": -0.00038122, "MEAN_MOTION_DDOT": 0}, "tle": {"line1": "1 66442U 25259W   25342.30657052 -.00038122  00000+0 -64654-3 0  9994", "line2": "2 66442  43.0006  73.1808 0001516 303.6738  56.3978 15.50605279  5482"}}, "geometry": {"type": "Point", "coordinates": [-42.55295206952152, -40.57873046323563]}}, {"type": "Feature", "properties": {"norad_id": 66443, "name": "STARLINK-35219", "group": "last-30-days", "lat": -41.897861778142826, "lon": -35.05101119771896, "alt_km": 414.8481629771122, "timestamp": "2025-12-08T17:43:03.631246+00:00", "meta": {"OBJECT_NAME": "STARLINK-35219", "OBJECT_ID": "2025-259X", "EPOCH": "2025-12-06T13:36:31.548384", "MEAN_MOTION": 15.50724046, "ECCENTRICITY": 0.00015671, "INCLINATION": 43.0012, "RA_OF_ASC_NODE": 83.3472, "ARG_OF_PERICENTER": 246.0575, "MEAN_ANOMALY": 114.0122, "EPHEMERIS_TYPE": 0, "CLASSIFICATION_TYPE": "U", "NORAD_CAT_ID": 66443, "ELEMENT_SET_NO": 999, "REV_AT_EPOCH": 510, "BSTAR": 0.0027615281, "MEAN_MOTION_DOT": 0.00166001, "MEAN_MOTION_DDOT": 0}, "tle": {"line1": "1 66443U 25259X   25340.56703181  .00166001  00000+0  27615-2 0  9997", "line2": "2 66443  43.0012  83.3472 0001567 246.0575 114.0122 15.50724046  5101"}}, "geometry": {"type": "Point", "coordinates": [-35.05101119771896, -41.897861778142826]}}, {"type": "Feature", "properties": {"norad_id": 66444, "name": "STARLINK-35360", "group": "last-30-days", "lat": -42.197683107185966, "lon": -32.72305367929858, "alt_km": 417.37997535429804, "timestamp": "2025-12-08T17:43:03.631258+00:00", "meta": {"OBJECT_NAME": "STARLINK-35360", "OBJECT_ID": "2025-259Y", "EPOCH": "2025-12-08T06:00:02.999808", "MEAN_MOTION": 15.5057439, "ECCENTRICITY": 0.00015991, "INCLINATION": 43.0011, "RA_OF_ASC_NODE": 73.4915, "ARG_OF_PERICENTER": 255.2577, "MEAN_ANOMALY": 156.4543, "EPHEMERIS_TYPE": 0, "CLASSIFICATION_TYPE": "U", "NORAD_CAT_ID": 66444, "ELEMENT_SET_NO": 999, "REV_AT_EPOCH": 555, "BSTAR": -0.00049753214, "MEAN_MOTION_DOT": -0.00029415, "MEAN_MOTION_DDOT": 0}, "tle": {"line1": "1 66444U 25259Y   25342.25003472 -.00029415  00000+0 -49753-3 0  9999", "line2": "2 66444  43.0011  73.4915 0001599 255.2577 156.4543 15.50574390  5553"}}, "geometry": {"type": "Point", "coordinates": [-32.72305367929858, -42.197683107185966]}}, {"type": "Feature", "properties": {"norad_id": 66445, "name": "STARLINK-34698", "group": "last-30-days", "lat": -41.4832455580294, "lon": -37.76173022927267, "alt_km": 417.3514901153203, "timestamp": "2025-12-08T17:43:03.631270+00:00", "meta": {"OBJECT_NAME": "STARLINK-34698", "OBJECT_ID": "2025-259Z", "EPOCH": "2025-12-08T06:00:02.999808", "MEAN_MOTION": 15.505835, "ECCENTRICITY": 0.00016423, "INCLINATION": 43.001, "RA_OF_ASC_NODE": 73.5013, "ARG_OF_PERICENTER": 254.9871, "MEAN_ANOMALY": 152.8937, "EPHEMERIS_TYPE": 0, "CLASSIFICATION_TYPE": "U", "NORAD_CAT_ID": 66445, "ELEMENT_SET_NO": 999, "REV_AT_EPOCH": 545, "BSTAR": -0.00084552345, "MEAN_MOTION_DOT": -0.00049639, "MEAN_MOTION_DDOT": 0}, "tle": {"line1": "1 66445U 25259Z   25342.25003472 -.00049639  00000+0 -84552-3 0  9996", "line2": "2 66445  43.0010  73.5013 0001642 254.9871 152.8937 15.50583500  5454"}}, "geometry": {"type": "Point", "coordinates": [-37.76173022927267, -41.4832455580294]}}]}